COSMOS 2251 DEB         
1 35014U 93036AGB 17338.24116207  .00000642  00000-0  18649-3 0  9992
2 35014  74.0083 177.0704 0013652 307.4515  52.5400 14.46272319455745
